STARLINK-1609_new
1 17621C 21012B   21326.13507045  .00006365  00000-0  42637-3 0  3264
2 17621  53.0553 273.1329 0001831  60.4100 252.3099 15.06397304    13
STARLINK-1609_old
1 27621C 21012B   21325.16266829  .00006478  00000-0  43411-3 0  3253
2 27621  53.0551 277.4978 0001771  59.0255  17.4270 15.06383018    14
